{
  "type": "FeatureCollection",
  "features": [
    {
      "type": "Feature",
      "properties": {
        "norad_id": 40730,
        "name": "GPS BIIF-10 (PRN 08)",
        "group": "gps-ops",
        "lat": 43.43310541438351,
        "lon": 51.38229426153209,
        "alt_km": 20199.830032496644,
        "timestamp": "2025-12-17T21:39:45.947160+00:00",
        "meta_object_name": "GPS BIIF-10 (PRN 08)",
        "meta_object_id": "2015-033A",
        "meta_epoch": "2025-12-17T05:42:17.714592",
        "meta_mean_motion": 2.0056549,
        "meta_eccentricity": 0.01112523,
        "meta_inclination": 54.1267,
        "meta_ra_of_asc_node": 274.5878,
        "meta_arg_of_pericenter": 26.9189,
        "meta_mean_anomaly": 333.675,
        "meta_ephemeris_type": 0,
        "meta_classification_type": "U",
        "meta_norad_cat_id": 40730,
        "meta_element_set_no": 999,
        "meta_rev_at_epoch": 7634,
        "meta_bstar": 0,
        "meta_mean_motion_dot": -4.6e-07,
        "meta_mean_motion_ddot": 0,
        "tle_line1": "1 40730U 15033A   25351.23770503 -.00000046  00000+0  00000+0 0  9998",
        "tle_line2": "2 40730  54.1267 274.5878 0111252  26.9189 333.6750  2.00565490 76347"
      },
      "geometry": {
        "type": "Point",
        "coordinates": [
          51.38229426153209,
          43.43310541438351
        ]
      }
    },
    {
      "type": "Feature",
      "properties": {
        "norad_id": 41019,
        "name": "GPS BIIF-11 (PRN 10)",
        "group": "gps-ops",
        "lat": 54.212542070704835,
        "lon": 102.82801204862271,
        "alt_km": 20441.316615115906,
        "timestamp": "2025-12-17T21:39:45.947170+00:00",
        "meta_object_name": "GPS BIIF-11 (PRN 10)",
        "meta_object_id": "2015-062A",
        "meta_epoch": "2025-12-17T07:07:49.922112",
        "meta_mean_motion": 2.00567224,
        "meta_eccentricity": 0.01109439,
        "meta_inclination": 56.8355,
        "meta_ra_of_asc_node": 37.826,
        "meta_arg_of_pericenter": 230.0627,
        "meta_mean_anomaly": 129.0159,
        "meta_ephemeris_type": 0,
        "meta_classification_type": "U",
        "meta_norad_cat_id": 41019,
        "meta_element_set_no": 999,
        "meta_rev_at_epoch": 7418,
        "meta_bstar": 0,
        "meta_mean_motion_dot": -7.6e-07,
        "meta_mean_motion_ddot": 0,
        "tle_line1": "1 41019U 15062A   25351.29710558 -.00000076  00000+0  00000+0 0  9994",
        "tle_line2": "2 41019  56.8355  37.8260 0110943 230.0627 129.0159  2.00567224 74188"
      },
      "geometry": {
        "type": "Point",
        "coordinates": [
          102.82801204862271,
          54.212542070704835
        ]
      }
    },
    {
      "type": "Feature",
      "properties": {
        "norad_id": 41328,
        "name": "GPS BIIF-12 (PRN 32)",
        "group": "gps-ops",
        "lat": 14.234377026726461,
        "lon": 106.71595801902139,
        "alt_km": 20349.360065748926,
        "timestamp": "2025-12-17T21:39:45.947180+00:00",
        "meta_object_name": "GPS BIIF-12 (PRN 32)",
        "meta_object_id": "2016-007A",
        "meta_epoch": "2025-12-17T09:06:47.085696",
        "meta_mean_motion": 2.00560552,
        "meta_eccentricity": 0.0092397,
        "meta_inclination": 55.4087,
        "meta_ra_of_asc_node": 96.6729,
        "meta_arg_of_pericenter": 243.6823,
        "meta_mean_anomaly": 115.3496,
        "meta_ephemeris_type": 0,
        "meta_classification_type": "U",
        "meta_norad_cat_id": 41328,
        "meta_element_set_no": 999,
        "meta_rev_at_epoch": 7219,
        "meta_bstar": 0,
        "meta_mean_motion_dot": -3.9e-07,
        "meta_mean_motion_ddot": 0,
        "tle_line1": "1 41328U 16007A   25351.37971164 -.00000039  00000+0  00000+0 0  9997",
        "tle_line2": "2 41328  55.4087  96.6729 0092397 243.6823 115.3496  2.00560552 72199"
      },
      "geometry": {
        "type": "Point",
        "coordinates": [
          106.71595801902139,
          14.234377026726461
        ]
      }
    },
    {
      "type": "Feature",
      "properties": {
        "norad_id": 43873,
        "name": "GPS BIII-1  (PRN 04)",
        "group": "gps-ops",
        "lat": -55.554665471779735,
        "lon": 12.08460151157303,
        "alt_km": 20165.320392338694,
        "timestamp": "2025-12-17T21:39:45.947190+00:00",
        "meta_object_name": "GPS BIII-1  (PRN 04)",
        "meta_object_id": "2018-109A",
        "meta_epoch": "2025-12-15T18:29:34.483200",
        "meta_mean_motion": 2.00553802,
        "meta_eccentricity": 0.00374359,
        "meta_inclination": 55.5688,
        "meta_ra_of_asc_node": 99.4273,
        "meta_arg_of_pericenter": 195.145,
        "meta_mean_anomaly": 336.5518,
        "meta_ephemeris_type": 0,
        "meta_classification_type": "U",
        "meta_norad_cat_id": 43873,
        "meta_element_set_no": 999,
        "meta_rev_at_epoch": 5139,
        "meta_bstar": 0,
        "meta_mean_motion_dot": -3.2e-07,
        "meta_mean_motion_ddot": 0,
        "tle_line1": "1 43873U 18109A   25349.77053800 -.00000032  00000+0  00000+0 0  9991",
        "tle_line2": "2 43873  55.5688  99.4273 0037435 195.1450 336.5518  2.00553802 51399"
      },
      "geometry": {
        "type": "Point",
        "coordinates": [
          12.08460151157303,
          -55.554665471779735
        ]
      }
    },
    {
      "type": "Feature",
      "properties": {
        "norad_id": 44506,
        "name": "GPS BIII-2  (PRN 18)",
        "group": "gps-ops",
        "lat": 9.899941248757656,
        "lon": 151.50158969718058,
        "alt_km": 20049.07411193257,
        "timestamp": "2025-12-17T21:39:45.947200+00:00",
        "meta_object_name": "GPS BIII-2  (PRN 18)",
        "meta_object_id": "2019-056A",
        "meta_epoch": "2025-12-17T03:59:08.759040",
        "meta_mean_motion": 2.00566605,
        "meta_eccentricity": 0.00577134,
        "meta_inclination": 55.7199,
        "meta_ra_of_asc_node": 338.3768,
        "meta_arg_of_pericenter": 198.5058,
        "meta_mean_anomaly": 157.947,
        "meta_ephemeris_type": 0,
        "meta_classification_type": "U",
        "meta_norad_cat_id": 44506,
        "meta_element_set_no": 999,
        "meta_rev_at_epoch": 4641,
        "meta_bstar": 0,
        "meta_mean_motion_dot": -8.7e-07,
        "meta_mean_motion_ddot": 0,
        "tle_line1": "1 44506U 19056A   25351.16607360 -.00000087  00000+0  00000+0 0  9999",
        "tle_line2": "2 44506  55.7199 338.3768 0057713 198.5058 157.9470  2.00566605 46412"
      },
      "geometry": {
        "type": "Point",
        "coordinates": [
          151.50158969718058,
          9.899941248757656
        ]
      }
    },
    {
      "type": "Feature",
      "properties": {
        "norad_id": 45854,
        "name": "GPS BIII-3  (PRN 23)",
        "group": "gps-ops",
        "lat": 50.90662609116425,
        "lon": 161.61509234273586,
        "alt_km": 20181.555994631384,
        "timestamp": "2025-12-17T21:39:45.947225+00:00",
        "meta_object_name": "GPS BIII-3  (PRN 23)",
        "meta_object_id": "2020-041A",
        "meta_epoch": "2025-12-17T06:02:11.568192",
        "meta_mean_motion": 2.00562016,
        "meta_eccentricity": 0.00605926,
        "meta_inclination": 56.5499,
        "meta_ra_of_asc_node": 36.0099,
        "meta_arg_of_pericenter": 203.5861,
        "meta_mean_anomaly": 158.5614,
        "meta_ephemeris_type": 0,
        "meta_classification_type": "U",
        "meta_norad_cat_id": 45854,
        "meta_element_set_no": 999,
        "meta_rev_at_epoch": 4039,
        "meta_bstar": 0,
        "meta_mean_motion_dot": -7.7e-07,
        "meta_mean_motion_ddot": 0,
        "tle_line1": "1 45854U 20041A   25351.25152278 -.00000077  00000+0  00000+0 0  9994",
        "tle_line2": "2 45854  56.5499  36.0099 0060592 203.5861 158.5614  2.00562016 40398"
      },
      "geometry": {
        "type": "Point",
        "coordinates": [
          161.61509234273586,
          50.90662609116425
        ]
      }
    },
    {
      "type": "Feature",
      "properties": {
        "norad_id": 46826,
        "name": "GPS BIII-4  (PRN 14)",
        "group": "gps-ops",
        "lat": 53.370134827350824,
        "lon": -64.20459068939734,
        "alt_km": 20263.098443430066,
        "timestamp": "2025-12-17T21:39:45.947237+00:00",
        "meta_object_name": "GPS BIII-4  (PRN 14)",
        "meta_object_id": "2020-078A",
        "meta_epoch": "2025-12-16T01:06:13.902336",
        "meta_mean_motion": 2.00566891,
        "meta_eccentricity": 0.00647559,
        "meta_inclination": 54.0145,
        "meta_ra_of_asc_node": 218.2068,
        "meta_arg_of_pericenter": 203.3837,
        "meta_mean_anomaly": 339.3927,
        "meta_ephemeris_type": 0,
        "meta_classification_type": "U",
        "meta_norad_cat_id": 46826,
        "meta_element_set_no": 999,
        "meta_rev_at_epoch": 3783,
        "meta_bstar": 0,
        "meta_mean_motion_dot": 6.7e-07,
        "meta_mean_motion_ddot": 0,
        "tle_line1": "1 46826U 20078A   25350.04599424  .00000067  00000+0  00000+0 0  9996",
        "tle_line2": "2 46826  54.0145 218.2068 0064755 203.3837 339.3927  2.00566891 37831"
      },
      "geometry": {
        "type": "Point",
        "coordinates": [
          -64.20459068939734,
          53.370134827350824
        ]
      }
    }
  ]
}